     3.04           N: GNSS NAV DATA    M: MIXED            RINEX VERSION / TYPE
ssrcrin-15.6.1x                         20250101 014500 UTC PGM / RUN BY / DATE 
    18                                                      LEAP SECONDS        
                                                            END OF HEADER       
S23 2025 01 01 01 44 32 0.000000000000E+00 0.000000000000E+00 2.655440000000E+05
     3.866796400000E+04 0.000000000000E+00 0.000000000000E+00 6.300000000000E+01
     1.681330800000E+04 0.000000000000E+00 0.000000000000E+00 3.276700000000E+04
     0.000000000000E+00 0.000000000000E+00 0.000000000000E+00 3.600000000000E+01
S21 2025 01 01 01 45 36 0.000000000000E+00 0.000000000000E+00 2.655450000000E+05
     4.200468400000E+04 0.000000000000E+00 0.000000000000E+00 6.300000000000E+01
    -3.674932960000E+03 0.000000000000E+00 0.000000000000E+00 3.276700000000E+04
     0.000000000000E+00 0.000000000000E+00 0.000000000000E+00 1.430000000000E+02
S27 2025 01 01 01 43 28 0.000000000000E+00 0.000000000000E+00 2.655570000000E+05
     2.419811304000E+04-1.401250000000E-03-2.750000000000E-07 6.300000000000E+01
     3.452866976000E+04-2.057500000000E-03 2.375000000000E-07 3.276700000000E+04
     5.587796000000E+02-3.452000000000E-03-2.937500000000E-06 2.200000000000E+01
S28 2025 01 01 01 43 28 0.000000000000E+00 0.000000000000E+00 2.655570000000E+05
     5.139357600000E+03-1.508750000000E-03-1.625000000000E-07 6.300000000000E+01
     4.184178072000E+04-1.005000000000E-03 8.750000000000E-08 3.276700000000E+04
    -2.512480000000E+01-1.760000000000E-04 1.250000000000E-07 2.200000000000E+01
S36 2025 01 01 01 44 48 0.000000000000E+00 0.000000000000E+00 2.655730000000E+05
     4.200368800000E+04 0.000000000000E+00 0.000000000000E+00 6.300000000000E+01
     3.674846960000E+03 0.000000000000E+00 0.000000000000E+00 3.276700000000E+04
     0.000000000000E+00 0.000000000000E+00 0.000000000000E+00 1.940000000000E+02
S44 2025 01 01 01 46 40 8.414499461651E-07 0.000000000000E+00 2.655920000000E+05
     7.328822480000E+03 2.088125000000E-03-3.750000000000E-08 6.300000000000E+01
     4.151507048000E+04-5.168750000000E-04-2.000000000000E-07 3.276700000000E+04
     2.903900000000E+02-1.388280000000E-01-7.500000000000E-07 6.000000000000E+01
S23 2025 01 01 01 46 40 0.000000000000E+00 0.000000000000E+00 2.656060000000E+05
     3.866796400000E+04 0.000000000000E+00 0.000000000000E+00 6.300000000000E+01
     1.681330800000E+04 0.000000000000E+00 0.000000000000E+00 3.276700000000E+04
     0.000000000000E+00 0.000000000000E+00 0.000000000000E+00 3.700000000000E+01
S27 2025 01 01 01 47 44 0.000000000000E+00 0.000000000000E+00 2.656390000000E+05
     2.419774144000E+04-1.471875000000E-03-2.750000000000E-07 6.300000000000E+01
     3.452814536000E+04-1.998125000000E-03 2.375000000000E-07 3.276700000000E+04
     5.577984000000E+02-4.212000000000E-03-2.937500000000E-06 2.300000000000E+01
S28 2025 01 01 01 47 44 0.000000000000E+00 0.000000000000E+00 2.656390000000E+05
     5.138963200000E+03-1.553125000000E-03-1.625000000000E-07 6.300000000000E+01
     4.184151960000E+04-9.906250000000E-04 8.750000000000E-08 3.276700000000E+04
    -2.516600000000E+01-1.440000000000E-04 1.250000000000E-07 2.300000000000E+01
S36 2025 01 01 01 47 28 0.000000000000E+00 0.000000000000E+00 2.656490000000E+05
     4.200368800000E+04 0.000000000000E+00 0.000000000000E+00 6.300000000000E+01
     3.674846960000E+03 0.000000000000E+00 0.000000000000E+00 3.276700000000E+04
     0.000000000000E+00 0.000000000000E+00 0.000000000000E+00 1.950000000000E+02
C22 2025 01 01 01 00 00 2.203702460974E-04 9.727330052556E-12 0.000000000000E+00
     1.000000000000E+00-1.737812500000E+02 3.246206646108E-09-8.071235648048E-01
    -8.758157491684E-06 4.345906199887E-04 7.785856723785E-06 5.282637954712E+03
     2.628000000000E+05 0.000000000000E+00-2.991909862998E-01 4.563480615616E-08
     9.810166489726E-01 2.139843750000E+02 3.659666325049E-01-6.582417041234E-09
    -3.010839699273E-10 0.000000000000E+00 9.910000000000E+02 0.000000000000E+00
     2.000000000000E+00 0.000000000000E+00 1.400000000000E-08 1.400000000000E-08
     2.656380000000E+05 1.000000000000E+00
S21 2025 01 01 01 48 16 0.000000000000E+00 0.000000000000E+00 2.657110000000E+05
     4.200468400000E+04 0.000000000000E+00 0.000000000000E+00 6.300000000000E+01
    -3.674932960000E+03 0.000000000000E+00 0.000000000000E+00 3.276700000000E+04
     0.000000000000E+00 0.000000000000E+00 0.000000000000E+00 1.440000000000E+02
S44 2025 01 01 01 48 48 8.414499461651E-07 0.000000000000E+00 2.657120000000E+05
     7.329088960000E+03 2.075000000000E-03-3.750000000000E-08 6.300000000000E+01
     4.151500096000E+04-5.693750000000E-04-2.000000000000E-07 3.276700000000E+04
     2.726076000000E+02-1.390200000000E-01-6.875000000000E-07 6.000000000000E+01
S23 2025 01 01 01 48 48 0.000000000000E+00 0.000000000000E+00 2.657310000000E+05
     3.866796400000E+04 0.000000000000E+00 0.000000000000E+00 6.300000000000E+01
     1.681330800000E+04 0.000000000000E+00 0.000000000000E+00 3.276700000000E+04
     0.000000000000E+00 0.000000000000E+00 0.000000000000E+00 3.800000000000E+01
S36 2025 01 01 01 49 52 0.000000000000E+00 0.000000000000E+00 2.658050000000E+05
     4.200368800000E+04 0.000000000000E+00 0.000000000000E+00 6.300000000000E+01
     3.674846960000E+03 0.000000000000E+00 0.000000000000E+00 3.276700000000E+04
     0.000000000000E+00 0.000000000000E+00 0.000000000000E+00 1.960000000000E+02
S44 2025 01 01 01 50 56 8.414499461651E-07 0.000000000000E+00 2.658320000000E+05
     7.329353760000E+03 2.061250000000E-03-5.000000000000E-08 6.300000000000E+01
     4.151492456000E+04-6.225000000000E-04-2.000000000000E-07 3.276700000000E+04
     2.548016000000E+02-1.392000000000E-01-6.875000000000E-07 6.000000000000E+01
S23 2025 01 01 01 50 56 0.000000000000E+00 0.000000000000E+00 2.658570000000E+05
     3.866796400000E+04 0.000000000000E+00 0.000000000000E+00 6.300000000000E+01
     1.681330800000E+04 0.000000000000E+00 0.000000000000E+00 3.276700000000E+04
     0.000000000000E+00 0.000000000000E+00 0.000000000000E+00 3.900000000000E+01
E06 2025 01 01 01 40 00-6.516737630591E-05-4.433786671143E-12 0.000000000000E+00
     6.100000000000E+01-1.469375000000E+02 2.750828868778E-09-9.589404573649E-01
    -6.807968020439E-06 4.472088767216E-04 1.150742173195E-05 5.440611249924E+03
     2.652000000000E+05-6.519258022308E-08 3.159317927873E-01 0.000000000000E+00
     9.568391774267E-01 9.409375000000E+01 1.985006804004E+00-5.160214943665E-09
     3.046555472693E-10 5.170000000000E+02 2.347000000000E+03
     3.120000000000E+00 0.000000000000E+00-2.328306436539E-10 1.629814505577E-09
     2.658650000000E+05
E18 2025 01 01 01 40 00 9.477363782935E-04 4.284572696633E-11 0.000000000000E+00
     6.100000000000E+01 2.643750000000E+01 6.818498303537E-09-6.342164947370E-01
     9.126961231232E-07 1.621178679634E-01 6.085261702538E-06 5.289324289322E+03
     2.652000000000E+05 1.175329089165E-06-2.841168090878E+00-2.088025212288E-06
     8.635246538851E-01 2.051562500000E+02 2.772377586620E+00-1.038436112175E-08
     4.546617956316E-10 5.170000000000E+02 2.347000000000E+03
     3.120000000000E+00 1.300000000000E+02-3.492459654808E-09-3.492459654808E-09
     2.658650000000E+05
E04 2025 01 01 01 40 00-1.210586633533E-04-9.549694368616E-12 0.000000000000E+00
     6.100000000000E+01-1.572187500000E+02 2.592965150264E-09-3.138280940604E+00
    -7.268041372299E-06 1.066118711606E-04 1.215375959873E-05 5.440614376068E+03
     2.652000000000E+05-1.862645149231E-08 3.135445299196E-01-4.656612873077E-08
     9.636156407222E-01 8.450000000000E+01-1.724274169729E+00-5.103069706194E-09
     2.785830326729E-10 5.170000000000E+02 2.347000000000E+03
     3.120000000000E+00 0.000000000000E+00-6.286427378654E-09-6.053596735001E-09
     2.658650000000E+05
E05 2025 01 01 01 40 00 4.815167165361E-03 3.325340003357E-12 0.000000000000E+00
     6.100000000000E+01-1.279687500000E+02 2.662253750698E-09 2.603834651342E+00
    -6.055459380150E-06 2.021540421993E-05 1.164712011814E-05 5.440620557785E+03
     2.652000000000E+05 4.842877388000E-08 3.134273911432E-01 1.862645149231E-08
     9.635891750712E-01 9.090625000000E+01-2.741147504048E+00-5.208788395516E-09
     2.982267080537E-10 5.170000000000E+02 2.347000000000E+03
     3.120000000000E+00 0.000000000000E+00-2.328306436539E-10 9.313225746155E-10
     2.658650000000E+05
E27 2025 01 01 01 40 00-5.444743437693E-04-9.919176591211E-12 0.000000000000E+00
     6.100000000000E+01-1.303125000000E+01 3.267636110160E-09 1.152255069329E+00
    -6.798654794693E-07 3.185819368809E-04 7.150694727898E-06 5.440604677200E+03
     2.652000000000E+05 3.539025783539E-08 2.413806186408E+00 1.490116119385E-08
     9.642350943649E-01 1.849375000000E+02 5.413141995663E-01-5.414154092678E-09
    -5.850243686132E-10 5.170000000000E+02 2.347000000000E+03
     3.120000000000E+00 0.000000000000E+00 2.328306436539E-10 1.164153218269E-09
     2.658650000000E+05
E10 2025 01 01 01 40 00-6.802033167332E-04-2.515321284591E-12 0.000000000000E+00
     6.100000000000E+01 1.675000000000E+02 2.781901591653E-09-1.100635529453E+00
     7.729977369308E-06 1.204184954986E-04 1.620501279831E-07 5.440604797363E+03
     2.652000000000E+05-9.313225746155E-08-1.777534310787E+00-5.960464477539E-08
     9.995087498028E-01 3.545312500000E+02-2.040493854554E+00-5.715238062606E-09
     2.860833450911E-10 5.170000000000E+02 2.347000000000E+03
     3.120000000000E+00 0.000000000000E+00-4.656612873077E-09-3.492459654808E-09
     2.658650000000E+05
S21 2025 01 01 01 51 12 0.000000000000E+00 0.000000000000E+00 2.658770000000E+05
     4.200468400000E+04 0.000000000000E+00 0.000000000000E+00 6.300000000000E+01
    -3.674932960000E+03 0.000000000000E+00 0.000000000000E+00 3.276700000000E+04
     0.000000000000E+00 0.000000000000E+00 0.000000000000E+00 1.450000000000E+02
